NORAD_CAT_ID,OBJECT_NAME,OBJECT_TYPE,EPOCH,MEAN_MOTION,ECCENTRICITY,INCLINATION,RA_OF_ASC_NODE,ARG_OF_PERICENTER,MEAN_ANOMALY,BSTAR,MEAN_MOTION_DOT,MEAN_MOTION_DDOT,TLE_LINE0,TLE_LINE1,TLE_LINE2,SEMIMAJOR_AXIS,PERIOD,APOGEE,PERIGEE,DECAYED
53172.0,STARLINK-4299,PAYLOAD,2023-10-01 18:36:55,15.08842657,0.0001521,53.2168,194.014,84.9386,275.178,0.00078038,0.00012154,0.0,0 STARLINK-4299,1 53172U 22083AS  23274.77563670  .00012154  00000-0  78038-3 0  9994,2 53172  53.2168 194.0140 0001521  84.9386 275.1780 15.08842657 67718,6917.872,95.437,540.789,538.685,0.0
53172.0,STARLINK-4299,PAYLOAD,2023-10-02 04:09:13,15.08865896,0.0001414,53.2162,192.2289,91.8961,268.2193,0.0012074,0.00018994,0.0,0 STARLINK-4299,1 53172U 22083AS  23275.17307055  .00018994  00000-0  12074-2 0  9997,2 53172  53.2162 192.2289 0001414  91.8961 268.2193 15.08865896 67770,6917.801,95.436,540.644,538.688,0.0
53172.0,STARLINK-4299,PAYLOAD,2023-10-02 12:06:09,15.08849015,0.0001155,53.2174,190.743,99.8669,260.2453,0.00043991,6.722e-05,0.0,0 STARLINK-4299,1 53172U 22083AS  23275.50427147  .00006722  00000-0  43991-3 0  9998,2 53172  53.2174 190.7430 0001155  99.8669 260.2453 15.08849015 67821,6917.853,95.437,540.517,538.919,0.0
53172.0,STARLINK-4299,PAYLOAD,2023-10-03 04:00:00,15.08847702,0.0001775,53.2164,187.7673,110.5002,249.618,0.00039359,5.983e-05,0.0,0 STARLINK-4299,1 53172U 22083AS  23276.16667256  .00005983  00000-0  39359-3 0  9999,2 53172  53.2164 187.7673 0001775 110.5002 249.6180 15.08847702 67925,6917.857,95.437,540.95,538.494,0.0
53172.0,STARLINK-4299,PAYLOAD,2023-10-03 21:29:15,15.08833633,0.0001402,53.2157,184.4967,111.0106,249.1037,0.00061009,9.433e-05,0.0,0 STARLINK-4299,1 53172U 22083AS  23276.89532069  .00009433  00000-0  61009-3 0  9993,2 53172  53.2157 184.4967 0001402 111.0106 249.1037 15.08833633 67390,6917.9,95.438,540.735,538.795,0.0
53172.0,STARLINK-4299,PAYLOAD,2023-10-04 03:50:48,15.08849881,0.0001448,53.2161,183.3074,100.0557,260.0598,0.00099361,0.00015565,0.0,0 STARLINK-4299,1 53172U 22083AS  23277.16028032  .00015565  00000-0  99361-3 0  9999,2 53172  53.2161 183.3074 0001448 100.0557 260.0598 15.08849881 68072,6917.85,95.437,540.717,538.713,0.0
53172.0,STARLINK-4299,PAYLOAD,2023-10-04 18:09:16,15.08848507,0.0001698,53.2158,180.6299,102.0021,258.1162,0.00067447,0.00010465,0.0,0 STARLINK-4299,1 53172U 22083AS  23277.75644125  .00010465  00000-0  67447-3 0  9995,2 53172  53.2158 180.6299 0001698 102.0021 258.1162 15.08848507 68161,6917.854,95.437,540.894,538.545,0.0
53172.0,STARLINK-4299,PAYLOAD,2023-10-04 21:20:02,15.08852393,0.0001585,53.2156,180.0351,105.6498,254.4669,0.00070414,0.0001094,0.0,0 STARLINK-4299,1 53172U 22083AS  23277.88891957  .00010940  00000-0  70414-3 0  9992,2 53172  53.2156 180.0351 0001585 105.6498 254.4669 15.08852393 67544,6917.843,95.437,540.804,538.611,0.0
53172.0,STARLINK-4299,PAYLOAD,2023-10-05 03:41:34,15.08871973,0.0001328,53.216,178.8476,88.0658,272.0486,0.0017999,0.00028499,0.0,0 STARLINK-4299,1 53172U 22083AS  23278.15387556  .00028499  00000-0  17999-2 0  9994,2 53172  53.2160 178.8476 0001328  88.0658 272.0486 15.08871973 68223,6917.783,95.436,540.566,538.729,0.0
53172.0,STARLINK-4299,PAYLOAD,2023-10-05 21:10:49,15.08843411,0.0001795,53.216,175.5756,102.7043,257.415,0.00072808,0.00011319,0.0,0 STARLINK-4299,1 53172U 22083AS  23278.88251925  .00011319  00000-0  72808-3 0  9998,2 53172  53.2160 175.5756 0001795 102.7043 257.4150 15.08843411 67699,6917.87,95.437,540.977,538.493,0.0
53172.0,STARLINK-4299,PAYLOAD,2023-10-06 01:56:58,15.08849209,0.0001649,53.2162,174.6848,91.3346,268.7835,0.00047278,7.246e-05,0.0,0 STARLINK-4299,1 53172U 22083AS  23279.08123823  .00007246  00000-0  47278-3 0  9993,2 53172  53.2162 174.6848 0001649  91.3346 268.7835 15.08849209 68361,6917.852,95.437,540.858,538.576,0.0
53172.0,STARLINK-4299,PAYLOAD,2023-10-06 09:53:54,15.08838513,0.0001727,53.2166,173.1987,84.7967,275.3222,0.0004089,6.225e-05,0.0,0 STARLINK-4299,1 53172U 22083AS  23279.41244113  .00006225  00000-0  40890-3 0  9995,2 53172  53.2166 173.1987 0001727  84.7967 275.3222 15.08838513 68411,6917.885,95.438,540.945,538.555,0.0
53172.0,STARLINK-4299,PAYLOAD,2023-10-06 22:37:00,15.08825387,0.0002023,53.2164,170.8202,87.9218,272.2006,1.8533e-05,7e-08,0.0,0 STARLINK-4299,1 53172U 22083AS  23279.94236891  .00000007  00000-0  18533-4 0  9999,2 53172  53.2164 170.8202 0002023  87.9218 272.2006 15.08825387 67855,6917.925,95.438,541.19,538.391,0.0
53172.0,STARLINK-4299,PAYLOAD,2023-10-07 01:47:46,15.08834783,0.0001829,53.2168,170.2266,83.3662,276.7539,0.000106,1.399e-05,0.0,0 STARLINK-4299,1 53172U 22083AS  23280.07484698  .00001399  00000-0  10600-3 0  9996,2 53172  53.2168 170.2266 0001829  83.3662 276.7539 15.08834783 68513,6917.896,95.438,541.027,538.496,0.0
53172.0,STARLINK-4299,PAYLOAD,2023-10-07 09:44:42,15.08834578,0.0001567,53.216,168.7374,98.1117,262.0053,0.00023824,3.505e-05,0.0,0 STARLINK-4299,1 53172U 22083AS  23280.40604639  .00003505  00000-0  23824-3 0  9995,2 53172  53.2160 168.7374 0001567  98.1117 262.0053 15.08834578 67920,6917.897,95.438,540.846,538.678,0.0
53172.0,STARLINK-4299,PAYLOAD,2023-10-07 22:27:47,15.08845635,0.0001677,53.2161,166.3591,92.662,267.4564,0.00035743,5.406e-05,0.0,0 STARLINK-4299,1 53172U 22083AS  23280.93596617  .00005406  00000-0  35743-3 0  9994,2 53172  53.2161 166.3591 0001677  92.6620 267.4564 15.08845635 68008,6917.863,95.437,540.888,538.568,0.0
53172.0,STARLINK-4299,PAYLOAD,2023-10-08 00:03:10,15.08850372,0.0001743,53.2162,166.0617,91.5392,268.58,0.00046685,7.152e-05,0.0,0 STARLINK-4299,1 53172U 22083AS  23281.00220494  .00007152  00000-0  46685-3 0  9997,2 53172  53.2162 166.0617 0001743  91.5392 268.5800 15.08850372 68653,6917.849,95.437,540.919,538.508,0.0
53172.0,STARLINK-4299,PAYLOAD,2023-10-08 09:35:29,15.08850564,0.0001764,53.2168,164.2746,89.4114,270.708,0.00043152,6.588e-05,0.0,0 STARLINK-4299,1 53172U 22083AS  23281.39964359  .00006588  00000-0  43152-3 0  9992,2 53172  53.2168 164.2746 0001764  89.4114 270.7080 15.08850564 68077,6917.848,95.437,540.933,538.493,0.0
53172.0,STARLINK-4299,PAYLOAD,2023-10-08 15:57:01,15.08848867,0.0001907,53.216,163.0915,81.1943,278.9265,0.00030857,4.627e-05,0.0,0 STARLINK-4299,1 53172U 22083AS  23281.66460446  .00004627  00000-0  30857-3 0  9990,2 53172  53.2160 163.0915 0001907  81.1943 278.9265 15.08848867 68755,6917.853,95.437,541.038,538.399,0.0
53172.0,STARLINK-4299,PAYLOAD,2023-10-08 20:43:11,15.08843707,0.0001328,53.2161,162.1986,84.6992,275.4152,0.00019042,2.744e-05,0.0,0 STARLINK-4299,1 53172U 22083AS  23281.86332445  .00002744  00000-0  19042-3 0  9990,2 53172  53.2161 162.1986 0001328  84.6992 275.4152 15.08843707 68141,6917.869,95.437,540.653,538.815,0.0
53172.0,STARLINK-4299,PAYLOAD,2023-10-09 09:26:16,15.08844766,0.0001385,53.2163,159.8177,94.8181,265.2969,0.00011036,1.469e-05,0.0,0 STARLINK-4299,1 53172U 22083AS  23282.39324170  .00001469  00000-0  11036-3 0  9993,2 53172  53.2163 159.8177 0001385  94.8181 265.2969 15.08844766 68222,6917.866,95.437,540.689,538.773,0.0
53172.0,STARLINK-4299,PAYLOAD,2023-10-09 15:47:48,15.08839466,0.0001827,53.2163,158.6291,93.0391,267.0811,7.5156e-05,9.08e-06,0.0,0 STARLINK-4299,1 53172U 22083AS  23282.65820557  .00000908  00000-0  75156-4 0  9993,2 53172  53.2163 158.6291 0001827  93.0391 267.0811 15.08839466 68903,6917.882,95.438,541.011,538.483,0.0
53172.0,STARLINK-4299,PAYLOAD,2023-10-09 20:33:58,15.08840372,0.0001624,53.2164,157.737,95.8747,264.2431,0.00020332,2.949e-05,0.0,0 STARLINK-4299,1 53172U 22083AS  23282.85692583  .00002949  00000-0  20332-3 0  9993,2 53172  53.2164 157.7370 0001624  95.8747 264.2431 15.08840372 68299,6917.879,95.438,540.868,538.621,0.0
53172.0,STARLINK-4299,PAYLOAD,2023-10-10 09:17:03,15.08836124,0.0001644,53.2161,155.3602,77.4146,282.703,0.00020446,2.967e-05,0.0,0 STARLINK-4299,1 53172U 22083AS  23283.38684933  .00002967  00000-0  20446-3 0  9998,2 53172  53.2161 155.3602 0001644  77.4146 282.7030 15.08836124 68378,6917.892,95.438,540.895,538.62,0.0
53172.0,STARLINK-4299,PAYLOAD,2023-10-10 18:49:22,15.08841097,0.0001334,53.2168,153.5723,102.2552,257.859,0.00037135,5.627e-05,0.0,0 STARLINK-4299,1 53172U 22083AS  23283.78428792  .00005627  00000-0  37135-3 0  9990,2 53172  53.2168 153.5723 0001334 102.2552 257.8590 15.08841097 69070,6917.877,95.437,540.665,538.819,0.0
53172.0,STARLINK-4299,PAYLOAD,2023-10-10 22:00:08,15.08845624,0.0001331,53.2167,152.9772,99.4234,260.6909,0.00034249,5.168e-05,0.0,0 STARLINK-4299,1 53172U 22083AS  23283.91676627  .00005168  00000-0  34249-3 0  9990,2 53172  53.2167 152.9772 0001331  99.4234 260.6909 15.08845624 68454,6917.863,95.437,540.649,538.807,0.0
53172.0,STARLINK-4299,PAYLOAD,2023-10-11 01:10:54,15.08847873,0.0001393,53.2165,152.382,104.908,255.2066,0.00057943,8.948e-05,0.0,0 STARLINK-4299,1 53172U 22083AS  23284.04924646  .00008948  00000-0  57943-3 0  9997,2 53172  53.2165 152.3820 0001393 104.9080 255.2066 15.08847873 68473,6917.856,95.437,540.685,538.758,0.0
53172.0,STARLINK-4299,PAYLOAD,2023-10-11 18:40:09,15.08844153,0.0001661,53.2163,149.1086,113.4704,246.6463,0.00029545,4.418e-05,0.0,0 STARLINK-4299,1 53172U 22083AS  23284.77788825  .00004418  00000-0  29545-3 0  9999,2 53172  53.2163 149.1086 0001661 113.4704 246.6463 15.08844153 69222,6917.868,95.437,540.882,538.584,0.0
53172.0,STARLINK-4299,PAYLOAD,2023-10-12 01:01:42,15.088513,0.0001378,53.2169,147.922,92.2284,267.8866,0.00061787,9.562e-05,0.0,0 STARLINK-4299,1 53172U 22083AS  23285.04284775  .00009562  00000-0  61787-3 0  9994,2 53172  53.2169 147.9220 0001378  92.2284 267.8866 15.08851300 68623,6917.846,95.437,540.664,538.758,0.0
53172.0,STARLINK-4299,PAYLOAD,2023-10-12 20:06:19,15.08841668,0.0001475,53.2173,144.353,87.0197,273.0964,0.00015985,2.257e-05,0.0,0 STARLINK-4299,1 53172U 22083AS  23285.83772938  .00002257  00000-0  15985-3 0  9997,2 53172  53.2173 144.3530 0001475  87.0197 273.0964 15.08841668 69384,6917.875,95.437,540.761,538.72,0.0
